PRAETORIAN SDA_617      
1 65580U 25203R   26064.63617606  .00000070  00000+0  52598-4 0  9998
2 65580  81.3009 106.6410 0008720 110.9806 249.2284 13.83190848 24379
PRAETORIAN SDA_618      
1 65581U 25203S   26064.58205960  .00000310  00000+0  26476-3 0  9991
2 65581  81.2999 106.5415 0011063 112.6816 247.5511 13.84760646 24379
PRAETORIAN SDA_619      
1 65582U 25203T   26064.62777899  .00000335  00000+0  29066-3 0  9997
2 65582  81.3013 106.6371 0009232 109.9585 250.2567 13.83930426 25004
PRAETORIAN SDA_620      
1 65583U 25203U   26064.63622897  .00000260  00000+0  22396-3 0  9992
2 65583  81.2999 106.6239 0008755 109.3527 250.8577 13.83705026 24371
PRAETORIAN SDA_621      
1 65584U 25203V   26064.62053961  .00000083  00000+0  64132-4 0  9990
2 65584  81.2993 106.5889 0008657 105.8042 254.4069 13.83786833 24371
PRAETORIAN SDA_601      
1 65585U 25203W   26064.63136161  .00000111  00000+0  89926-4 0  9996
2 65585  81.3002 106.7892 0006439 117.5538 242.6273 13.83484124 24369
