[{"OBJECT_NAME":"PRAETORIAN SDA_617","OBJECT_ID":"2025-203R","EPOCH":"2026-03-05T15:16:05.611584","MEAN_MOTION":13.83190848,"ECCENTRICITY":0.000872,"INCLINATION":81.3009,"RA_OF_ASC_NODE":106.641,"ARG_OF_PERICENTER":110.9806,"MEAN_ANOMALY":249.2284,"EPHEMERIS_TYPE":0,"CLASSIFICATION_TYPE":"U","NORAD_CAT_ID":65580,"ELEMENT_SET_NO":999,"REV_AT_EPOCH":2437,"BSTAR":5.2598e-5,"MEAN_MOTION_DOT":7.0e-7,"MEAN_MOTION_DDOT":0},{"OBJECT_NAME":"PRAETORIAN SDA_618","OBJECT_ID":"2025-203S","EPOCH":"2026-03-05T13:58:09.949440","MEAN_MOTION":13.84760646,"ECCENTRICITY":0.0011063,"INCLINATION":81.2999,"RA_OF_ASC_NODE":106.5415,"ARG_OF_PERICENTER":112.6816,"MEAN_ANOMALY":247.5511,"EPHEMERIS_TYPE":0,"CLASSIFICATION_TYPE":"U","NORAD_CAT_ID":65581,"ELEMENT_SET_NO":999,"REV_AT_EPOCH":2437,"BSTAR":0.00026476,"MEAN_MOTION_DOT":3.1e-6,"MEAN_MOTION_DDOT":0},{"OBJECT_NAME":"PRAETORIAN SDA_619","OBJECT_ID":"2025-203T","EPOCH":"2026-03-05T15:04:00.104736","MEAN_MOTION":13.83930426,"ECCENTRICITY":0.0009232,"INCLINATION":81.3013,"RA_OF_ASC_NODE":106.6371,"ARG_OF_PERICENTER":109.9585,"MEAN_ANOMALY":250.2567,"EPHEMERIS_TYPE":0,"CLASSIFICATION_TYPE":"U","NORAD_CAT_ID":65582,"ELEMENT_SET_NO":999,"REV_AT_EPOCH":2500,"BSTAR":0.00029066,"MEAN_MOTION_DOT":3.35e-6,"MEAN_MOTION_DDOT":0},{"OBJECT_NAME":"PRAETORIAN SDA_620","OBJECT_ID":"2025-203U","EPOCH":"2026-03-05T15:16:10.183008","MEAN_MOTION":13.83705026,"ECCENTRICITY":0.0008755,"INCLINATION":81.2999,"RA_OF_ASC_NODE":106.6239,"ARG_OF_PERICENTER":109.3527,"MEAN_ANOMALY":250.8577,"EPHEMERIS_TYPE":0,"CLASSIFICATION_TYPE":"U","NORAD_CAT_ID":65583,"ELEMENT_SET_NO":999,"REV_AT_EPOCH":2437,"BSTAR":0.00022396,"MEAN_MOTION_DOT":2.6e-6,"MEAN_MOTION_DDOT":0},{"OBJECT_NAME":"PRAETORIAN SDA_621","OBJECT_ID":"2025-203V","EPOCH":"2026-03-05T14:53:34.622304","MEAN_MOTION":13.83786833,"ECCENTRICITY":0.0008657,"INCLINATION":81.2993,"RA_OF_ASC_NODE":106.5889,"ARG_OF_PERICENTER":105.8042,"MEAN_ANOMALY":254.4069,"EPHEMERIS_TYPE":0,"CLASSIFICATION_TYPE":"U","NORAD_CAT_ID":65584,"ELEMENT_SET_NO":999,"REV_AT_EPOCH":2437,"BSTAR":6.4132e-5,"MEAN_MOTION_DOT":8.3e-7,"MEAN_MOTION_DDOT":0},{"OBJECT_NAME":"PRAETORIAN SDA_601","OBJECT_ID":"2025-203W","EPOCH":"2026-03-05T15:09:09.643104","MEAN_MOTION":13.83484124,"ECCENTRICITY":0.0006439,"INCLINATION":81.3002,"RA_OF_ASC_NODE":106.7892,"ARG_OF_PERICENTER":117.5538,"MEAN_ANOMALY":242.6273,"EPHEMERIS_TYPE":0,"CLASSIFICATION_TYPE":"U","NORAD_CAT_ID":65585,"ELEMENT_SET_NO":999,"REV_AT_EPOCH":2436,"BSTAR":8.9926e-5,"MEAN_MOTION_DOT":1.11e-6,"MEAN_MOTION_DDOT":0}]
